[{"OBJECT_NAME":"STARLINK-3527","OBJECT_ID":"2022-016N","EPOCH":"2026-03-09T22:42:40.124736","MEAN_MOTION":15.0895963,"ECCENTRICITY":0.00012129,"INCLINATION":53.2166,"RA_OF_ASC_NODE":317.9674,"ARG_OF_PERICENTER":98.5905,"MEAN_ANOMALY":261.5225,"EPHEMERIS_TYPE":0,"CLASSIFICATION_TYPE":"U","NORAD_CAT_ID":51726,"ELEMENT_SET_NO":999,"REV_AT_EPOCH":22360,"BSTAR":0.00054417406,"MEAN_MOTION_DOT":8.411e-5,"MEAN_MOTION_DDOT":0},{"OBJECT_NAME":"SEDNA-2","OBJECT_ID":"2025-009DQ","EPOCH":"2026-03-09T19:10:28.282944","MEAN_MOTION":15.10492622,"ECCENTRICITY":0.0010309,"INCLINATION":97.4615,"RA_OF_ASC_NODE":144.8075,"ARG_OF_PERICENTER":53.026,"MEAN_ANOMALY":307.1912,"EPHEMERIS_TYPE":0,"CLASSIFICATION_TYPE":"U","NORAD_CAT_ID":63153,"ELEMENT_SET_NO":999,"REV_AT_EPOCH":6311,"BSTAR":0.00049393403,"MEAN_MOTION_DOT":8.085e-5,"MEAN_MOTION_DDOT":0}]
